{
  "type": "FeatureCollection",
  "features": [
    {
      "type": "Feature",
      "properties": {
        "norad_id": 30805,
        "name": "FENGYUN 1C DEB",
        "group": "fengyun-1c-debris",
        "lat": -4.930572767096755,
        "lon": 27.30646840957462,
        "alt_km": 863.8421137921441,
        "timestamp": "2025-12-09T18:55:17.510625+00:00",
        "meta_object_name": "FENGYUN 1C DEB",
        "meta_object_id": "1999-025AUP",
        "meta_epoch": "2025-12-09T14:34:21.131328",
        "meta_mean_motion": 14.02883985,
        "meta_eccentricity": 0.00695131,
        "meta_inclination": 98.8207,
        "meta_ra_of_asc_node": 26.3634,
        "meta_arg_of_pericenter": 293.0054,
        "meta_mean_anomaly": 226.752,
        "meta_ephemeris_type": 0,
        "meta_classification_type": "U",
        "meta_norad_cat_id": 30805,
        "meta_element_set_no": 999,
        "meta_rev_at_epoch": 95916,
        "meta_bstar": 0.0011034256,
        "meta_mean_motion_dot": 1.703e-05,
        "meta_mean_motion_ddot": 0,
        "tle_line1": "1 30805U 99025AUP 25343.60718902  .00001703  00000+0  11034-2 0  9992",
        "tle_line2": "2 30805  98.8207  26.3634 0069513 293.0054 226.7520 14.02883985959165"
      },
      "geometry": {
        "type": "Point",
        "coordinates": [
          27.30646840957462,
          -4.930572767096755
        ]
      }
    },
    {
      "type": "Feature",
      "properties": {
        "norad_id": 30806,
        "name": "FENGYUN 1C DEB",
        "group": "fengyun-1c-debris",
        "lat": -8.233706296416482,
        "lon": 11.817563077640916,
        "alt_km": 1165.1924167667003,
        "timestamp": "2025-12-09T18:55:17.510635+00:00",
        "meta_object_name": "FENGYUN 1C DEB",
        "meta_object_id": "1999-025AUQ",
        "meta_epoch": "2025-12-06T12:52:53.893632",
        "meta_mean_motion": 13.70403207,
        "meta_eccentricity": 0.02687402,
        "meta_inclination": 99.0369,
        "meta_ra_of_asc_node": 7.4386,
        "meta_arg_of_pericenter": 146.6144,
        "meta_mean_anomaly": 13.4768,
        "meta_ephemeris_type": 0,
        "meta_classification_type": "U",
        "meta_norad_cat_id": 30806,
        "meta_element_set_no": 999,
        "meta_rev_at_epoch": 93610,
        "meta_bstar": 0.0012176938,
        "meta_mean_motion_dot": 1.35e-05,
        "meta_mean_motion_ddot": 0,
        "tle_line1": "1 30806U 99025AUQ 25340.53673488  .00001350  00000+0  12177-2 0  9998",
        "tle_line2": "2 30806  99.0369   7.4386 0268740 146.6144  13.4768 13.70403207936101"
      },
      "geometry": {
        "type": "Point",
        "coordinates": [
          11.817563077640916,
          -8.233706296416482
        ]
      }
    },
    {
      "type": "Feature",
      "properties": {
        "norad_id": 30809,
        "name": "FENGYUN 1C DEB",
        "group": "fengyun-1c-debris",
        "lat": -77.28243847132727,
        "lon": -150.47119428597713,
        "alt_km": 795.4806045868017,
        "timestamp": "2025-12-09T18:55:17.510645+00:00",
        "meta_object_name": "FENGYUN 1C DEB",
        "meta_object_id": "1999-025AUT",
        "meta_epoch": "2025-12-09T04:15:56.901888",
        "meta_mean_motion": 14.29173831,
        "meta_eccentricity": 0.00524835,
        "meta_inclination": 98.7889,
        "meta_ra_of_asc_node": 72.1897,
        "meta_arg_of_pericenter": 181.8655,
        "meta_mean_anomaly": 178.2338,
        "meta_ephemeris_type": 0,
        "meta_classification_type": "U",
        "meta_norad_cat_id": 30809,
        "meta_element_set_no": 999,
        "meta_rev_at_epoch": 97036,
        "meta_bstar": 0.0024645446,
        "meta_mean_motion_dot": 6.309e-05,
        "meta_mean_motion_ddot": 0,
        "tle_line1": "1 30809U 99025AUT 25343.17774192  .00006309  00000+0  24645-2 0  9990",
        "tle_line2": "2 30809  98.7889  72.1897 0052483 181.8655 178.2338 14.29173831970367"
      },
      "geometry": {
        "type": "Point",
        "coordinates": [
          -150.47119428597713,
          -77.28243847132727
        ]
      }
    },
    {
      "type": "Feature",
      "properties": {
        "norad_id": 30810,
        "name": "FENGYUN 1C DEB",
        "group": "fengyun-1c-debris",
        "lat": -15.540135595319533,
        "lon": -26.561558313973716,
        "alt_km": 970.0935107662926,
        "timestamp": "2025-12-09T18:55:17.510655+00:00",
        "meta_object_name": "FENGYUN 1C DEB",
        "meta_object_id": "1999-025AUU",
        "meta_epoch": "2025-12-09T11:10:04.959552",
        "meta_mean_motion": 14.04100739,
        "meta_eccentricity": 0.01797746,
        "meta_inclination": 98.6646,
        "meta_ra_of_asc_node": 155.5604,
        "meta_arg_of_pericenter": 64.6403,
        "meta_mean_anomaly": 297.326,
        "meta_ephemeris_type": 0,
        "meta_classification_type": "U",
        "meta_norad_cat_id": 30810,
        "meta_element_set_no": 999,
        "meta_rev_at_epoch": 94337,
        "meta_bstar": 0.0035386372,
        "meta_mean_motion_dot": 6.436e-05,
        "meta_mean_motion_ddot": 0,
        "tle_line1": "1 30810U 99025AUU 25343.46533518  .00006436  00000+0  35386-2 0  9994",
        "tle_line2": "2 30810  98.6646 155.5604 0179774  64.6403 297.3260 14.04100739943371"
      },
      "geometry": {
        "type": "Point",
        "coordinates": [
          -26.561558313973716,
          -15.540135595319533
        ]
      }
    },
    {
      "type": "Feature",
      "properties": {
        "norad_id": 30811,
        "name": "FENGYUN 1C DEB",
        "group": "fengyun-1c-debris",
        "lat": -29.274347366342145,
        "lon": -161.53211294897687,
        "alt_km": 1221.8506803819637,
        "timestamp": "2025-12-09T18:55:17.510665+00:00",
        "meta_object_name": "FENGYUN 1C DEB",
        "meta_object_id": "1999-025AUV",
        "meta_epoch": "2025-12-09T02:02:43.965312",
        "meta_mean_motion": 13.61825589,
        "meta_eccentricity": 0.02786243,
        "meta_inclination": 98.783,
        "meta_ra_of_asc_node": 22.8058,
        "meta_arg_of_pericenter": 55.7667,
        "meta_mean_anomaly": 306.954,
        "meta_ephemeris_type": 0,
        "meta_classification_type": "U",
        "meta_norad_cat_id": 30811,
        "meta_element_set_no": 999,
        "meta_rev_at_epoch": 92817,
        "meta_bstar": 0.0019405247,
        "meta_mean_motion_dot": 1.896e-05,
        "meta_mean_motion_ddot": 0,
        "tle_line1": "1 30811U 99025AUV 25343.08523108  .00001896  00000+0  19405-2 0  9996",
        "tle_line2": "2 30811  98.7830  22.8058 0278624  55.7667 306.9540 13.61825589928172"
      },
      "geometry": {
        "type": "Point",
        "coordinates": [
          -161.53211294897687,
          -29.274347366342145
        ]
      }
    },
    {
      "type": "Feature",
      "properties": {
        "norad_id": 30814,
        "name": "FENGYUN 1C DEB",
        "group": "fengyun-1c-debris",
        "lat": -63.32208910292441,
        "lon": -21.53005471844218,
        "alt_km": 686.2660650293192,
        "timestamp": "2025-12-09T18:55:17.510674+00:00",
        "meta_object_name": "FENGYUN 1C DEB",
        "meta_object_id": "1999-025AUY",
        "meta_epoch": "2025-12-09T04:58:42.541248",
        "meta_mean_motion": 14.60277399,
        "meta_eccentricity": 0.003049,
        "meta_inclination": 99.083,
        "meta_ra_of_asc_node": 319.2687,
        "meta_arg_of_pericenter": 244.3003,
        "meta_mean_anomaly": 238.303,
        "meta_ephemeris_type": 0,
        "meta_classification_type": "U",
        "meta_norad_cat_id": 30814,
        "meta_element_set_no": 999,
        "meta_rev_at_epoch": 97690,
        "meta_bstar": 0.0039215,
        "meta_mean_motion_dot": 0.00019051,
        "meta_mean_motion_ddot": 0,
        "tle_line1": "1 30814U 99025AUY 25343.20743682  .00019051  00000+0  39215-2 0  9997",
        "tle_line2": "2 30814  99.0830 319.2687 0030490 244.3003 238.3030 14.60277399976903"
      },
      "geometry": {
        "type": "Point",
        "coordinates": [
          -21.53005471844218,
          -63.32208910292441
        ]
      }
    },
    {
      "type": "Feature",
      "properties": {
        "norad_id": 30815,
        "name": "FENGYUN 1C DEB",
        "group": "fengyun-1c-debris",
        "lat": 0.21740595234687216,
        "lon": -40.696885674119514,
        "alt_km": 653.5265034217491,
        "timestamp": "2025-12-09T18:55:17.510684+00:00",
        "meta_object_name": "FENGYUN 1C DEB",
        "meta_object_id": "1999-025AUZ",
        "meta_epoch": "2025-12-08T09:45:16.205184",
        "meta_mean_motion": 14.73211211,
        "meta_eccentricity": 0.00023576,
        "meta_inclination": 99.3013,
        "meta_ra_of_asc_node": 137.6859,
        "meta_arg_of_pericenter": 274.6378,
        "meta_mean_anomaly": 139.7918,
        "meta_ephemeris_type": 0,
        "meta_classification_type": "U",
        "meta_norad_cat_id": 30815,
        "meta_element_set_no": 999,
        "meta_rev_at_epoch": 97716,
        "meta_bstar": 0.0047427966,
        "meta_mean_motion_dot": 0.00030686,
        "meta_mean_motion_ddot": 0,
        "tle_line1": "1 30815U 99025AUZ 25342.40643756  .00030686  00000+0  47428-2 0  9992",
        "tle_line2": "2 30815  99.3013 137.6859 0002357 274.6378 139.7918 14.73211211977168"
      },
      "geometry": {
        "type": "Point",
        "coordinates": [
          -40.696885674119514,
          0.21740595234687216
        ]
      }
    }
  ]
}